#aV2007  6 21  0  0   .00000000      96 DD+AD WGS84 FIT  NGA
## 1432 345600.00000000   900.00000000 54272  .0000000000000
+   30     1  2  3  4  5  6  7  8  9 10 11 12 13 14 16 17 18
+         19 20 21 22 23 24 25 26 27 28 29 30 31  0  0  0  0
+          0  0  0  0  0  0  0  0  0  0  0  0  0  0  0  0  0
+          0  0  0  0  0  0  0  0  0  0  0  0  0  0  0  0  0
+          0  0  0  0  0  0  0  0  0  0  0  0  0  0  0  0  0
++         0  0  0  0  0  0  0  0  0  0  0  0  0  0  0  0  0
++         0  0  0  0  0  0  0  0  0  0  0  0  0  0  0  0  0
++         0  0  0  0  0  0  0  0  0  0  0  0  0  0  0  0  0
++         0  0  0  0  0  0  0  0  0  0  0  0  0  0  0  0  0
++         0  0  0  0  0  0  0  0  0  0  0  0  0  0  0  0  0
%c cc cc ccc ccc cccc cccc cccc cccc ccccc ccccc ccccc ccccc
%c cc cc ccc ccc cccc cccc cccc cccc ccccc ccccc ccccc ccccc
%f  0.0000000  0.000000000  0.00000000000  0.000000000000000
%f  0.0000000  0.000000000  0.00000000000  0.000000000000000
%i    0    0    0    0      0      0      0      0         0
%i    0    0    0    0      0      0      0      0         0
/*      NGA, ST. LOUIS,MO.                                  
/*   EPHEMERIS COMPUTED FROM  3 DAYS OF DATA                
/* CCCCCCCCCCCCCCCCCCCCCCCCCCCCCCCCCCCCCCCCCCCCCCCCCCCCCCCCC
/* CCCCCCCCCCCCCCCCCCCCCCCCCCCCCCCCCCCCCCCCCCCCCCCCCCCCCCCCC
*  2007  6 21  8  0   .00000000                                                 
P  1  -3009.229390  15814.062343  21314.481954    135.374764                    
V  1 -25271.659483   8079.736772  -9719.974500       .021956                    
P  2  -8600.580579 -20266.692187  14854.218797    115.803377                    
V  2  16482.922360   9998.070034  22577.103933       .028297                    
P  3   4419.511120  15663.201514 -21171.100808     75.387134                    
V  3 -23879.472765  11681.595265   4033.839259       .055879                    
P  4   4024.798430 -15967.429355  20705.703304      9.143829                    
V  4  21308.076010  15911.861615   8455.652051      -.010132                    
P  5 -14925.749492  -6109.098596  20885.460494     80.920821                    
V  5   2180.355971 -27047.178945  -6128.246294       .510963                    
P  6 -25104.364162   5398.661952   7065.426094    219.390310                    
V  6   6613.657550  -6670.868617  29354.704000       .090526                    
P  7 -24942.985185   8348.824268   4255.629475    244.826158                    
V  7   3016.872132  -5288.851356  30506.325366      -.190634                    
P  8  13419.540807  -7722.420720 -21749.989795   -111.844774                    
V  8  20435.546124  17996.026275   5820.618859      -.013729                    
P  9 -21645.531272 -15573.138969    225.504668     75.416026                    
V  9    638.797301  -2586.309794 -31741.677988       .015025                    
P 10  -1775.388027 -24930.170819  -8615.145321    103.645125                    
V 10   4365.352985 -10276.257630  29541.530973       .004964                    
P 11  23971.957931  11699.706641   1436.313335     18.861473                    
V 11   -494.514323   5007.150899 -29941.648334       .008003                    
P 12 -12667.060747 -11656.934220  20348.889804    -47.347193                    
V 12   4579.742016 -25187.269883 -11575.715429      -.009605                    
P 13  25420.464694  -5555.413622   5119.728299    183.338160                    
V 13  -5650.447363   3871.824187  31633.882257       .032881                    
P 14 -17654.564041  15411.766386  12497.933467     26.008600                    
V 14 -15302.803735   3985.889848 -26783.931544       .018815                    
P 16  -2336.779860  26233.610306  -2614.858352    157.141587                    
V 16  -3353.710378   2945.327012  31691.771003       .027708                    
P 17  19205.069673 -15172.075092  10166.665188     63.875139                    
V 17  13001.677273  -2261.445868 -28111.772463      -.012641                    
P 18 -15482.205210  10042.237022 -18832.168228   -246.753852                    
V 18   2776.001107 -24256.429550 -15443.181600       .010923                    
P 19  13683.582851  10465.364631 -20146.880801     44.511131                    
V 19 -24196.376047   8975.681286 -11593.102694       .031049                    
P 20  13542.709122   9602.712530  20633.313384    -25.882673                    
V 20  -4346.274187  26119.484341  -9222.259167      -.004148                    
P 21 -19886.466817    244.132455 -17744.507060     78.105596                    
V 21 -16266.448076 -15837.466756  17301.626364       .003002                    
P 22 -11724.513664  21327.360489 -10439.460542    187.515004                    
V 22   -201.344219 -13801.450706 -27602.738133       .017124                    
P 23  22377.791415   1618.473804  14292.942474    175.484256                    
V 23 -16238.903541   8391.744531  24124.781016       .029976                    
P 24 -22203.334936 -10675.713030  -9330.685671      9.153357                    
V 24  -7260.648247 -10285.349525  28708.002484       .029444                    
P 25  22951.324014   4856.235768 -11939.042170    327.798618                    
V 25  11869.650932  10736.783958  26528.278624       .205572                    
P 26 -10669.912454 -11435.632097 -21999.838433   -262.523159                    
V 26  25101.795010  -9083.586074  -7060.049118      -.215804                    
P 27  19829.189182   -701.394605 -17124.930099    117.942492                    
V 27  17873.578949  14449.672855  19160.087685       .023839                    
P 28  12723.491352 -18491.740965 -13585.449734     -1.428569                    
V 28   -512.424050  18121.224846 -24874.367298      -.007434                    
P 29  -5906.914566 -13259.030673 -22043.466494      3.931590                    
V 29  26426.311568 -10408.403848   -449.283360       .003242                    
P 30 -15487.400746    931.299959  21239.722608     37.261432                    
V 30   2548.061947 -27651.365468   3137.360748       .010292                    
P 31  -1756.223296  16843.321917  20639.973439     17.526516                    
V 31 -20883.794633 -15139.675560  10751.282386      -.008706                    
EOF
